GLOBALSTAR M067 [+]     
1 32263U 07048A   24068.03902497 -.00000057  00000+0  29980-3 0  9992
2 32263  51.9746 319.8859 0001606  70.1513  38.1416 12.40639487751867
GLOBALSTAR M070 [+]     
1 32264U 07048B   24068.14573456 -.00000060  00000+0  24198-3 0  9994
2 32264  51.9738 108.2180 0000745 137.0772 259.1019 12.62287865755792
GLOBALSTAR M066 [+]     
1 32265U 07048C   24067.50352421 -.00000057  00000+0  25971-3 0  9997
2 32265  51.9699 332.1792 0000986  32.2301 150.5995 12.62256635756998
GLOBALSTAR M068 [-]     
1 32266U 07048D   24067.34914294 -.00000048  00000+0  31266-3 0  9996
2 32266  51.9877 285.2868 0001022 134.4332  47.2841 12.62781170758575
GLOBALSTAR M079 [+]     
1 37188U 10054A   24067.46009975 -.00000087  00000+0  91480-4 0  9997
2 37188  52.0025 120.5784 0000443  92.1269 300.3933 12.62267184618195
GLOBALSTAR M074 [+]     
1 37189U 10054B   24068.11690584 -.00000079  00000+0  13901-3 0  9995
2 37189  52.0006 117.9748 0000542 121.8448 256.2944 12.62266053618278
GLOBALSTAR M076 [+]     
1 37190U 10054C   24068.14348244 -.00000081  00000+0  12780-3 0  9990
2 37190  52.0017 118.0233 0000889  87.2907 291.0945 12.62275243618282
GLOBALSTAR M077 [+]     
1 37191U 10054D   24068.05049972 -.00000098  00000+0  30480-4 0  9993
2 37191  52.0066  75.0266 0000441 110.1662 265.3229 12.62270114619016
